{"type": "FeatureCollection", "features": [ {"type": "Feature", "properties": {"norad_id": 39620, "name": "COSMOS 2492 (754)", "group": "gnss", "lat": 45.13074173139567, "lon": -12.444745569223187, "alt_km": 19130.72001179137, "timestamp": "2025-12-15T10:55:21.384398+00:00", "meta": {"OBJECT_NAME": "COSMOS 2492 (754)", "OBJECT_ID": "2014-012A", "EPOCH": "2025-12-12T02:29:11.116896", "MEAN_MOTION": 2.1310296, "ECCENTRICITY": 0.00141989, "INCLINATION": 65.408, "RA_OF_ASC_NODE": 320.2923, "ARG_OF_PERICENTER": 311.6032, "MEAN_ANOMALY": 48.2746, "EPHEMERIS_TYPE": 0, "CLASSIFICATION_TYPE": "U", "NORAD_CAT_ID": 39620, "ELEMENT_SET_NO": 999, "REV_AT_EPOCH": 9125, "BSTAR": 0, "MEAN_MOTION_DOT": -5.5e-07, "MEAN_MOTION_DDOT": 0}, "tle": {"line1": "1 39620U 14012A   25346.10360089 -.00000055  00000+0  00000+0 0  9994", "line2": "2 39620  65.4080 320.2923 0014198 311.6032  48.2746  2.13102960 91257"}}, "geometry": {"type": "Point", "coordinates": [-12.444745569223187, 45.13074173139567]}}, {"type": "Feature", "properties": {"norad_id": 39635, "name": "IRNSS-1B", "group": "gnss", "lat": 25.049310058748244, "lon": -59.81030103124017, "alt_km": 35853.604156496134, "timestamp": "2025-12-15T10:55:21.384409+00:00", "meta": {"OBJECT_NAME": "IRNSS-1B", "OBJECT_ID": "2014-017A", "EPOCH": "2025-12-11T18:54:44.030304", "MEAN_MOTION": 1.00285038, "ECCENTRICITY": 0.00181492, "INCLINATION": 29.2271, "RA_OF_ASC_NODE": 243.6214, "ARG_OF_PERICENTER": 227.0185, "MEAN_ANOMALY": 309.1991, "EPHEMERIS_TYPE": 0, "CLASSIFICATION_TYPE": "U", "NORAD_CAT_ID": 39635, "ELEMENT_SET_NO": 999, "REV_AT_EPOCH": 4291, "BSTAR": 0, "MEAN_MOTION_DOT": 1.07e-06, "MEAN_MOTION_DDOT": 0}, "tle": {"line1": "1 39635U 14017A   25345.78800961  .00000107  00000+0  00000+0 0  9993", "line2": "2 39635  29.2271 243.6214 0018149 227.0185 309.1991  1.00285038 42916"}}, "geometry": {"type": "Point", "coordinates": [-59.81030103124017, 25.049310058748244]}}, {"type": "Feature", "properties": {"norad_id": 39727, "name": "LUCH 5V (SDCM/PRN 141)", "group": "gnss", "lat": -4.675638650840325, "lon": -17.038445325108775, "alt_km": 35779.14491073549, "timestamp": "2025-12-15T10:55:21.384435+00:00", "meta": {"OBJECT_NAME": "LUCH 5V (SDCM/PRN 141)", "OBJECT_ID": "2014-023A", "EPOCH": "2025-12-14T19:00:21.593376", "MEAN_MOTION": 1.00268605, "ECCENTRICITY": 0.00044592, "INCLINATION": 4.6747, "RA_OF_ASC_NODE": 71.52, "ARG_OF_PERICENTER": 208.4046, "MEAN_ANOMALY": 183.5953, "EPHEMERIS_TYPE": 0, "CLASSIFICATION_TYPE": "U", "NORAD_CAT_ID": 39727, "ELEMENT_SET_NO": 999, "REV_AT_EPOCH": 4251, "BSTAR": 0, "MEAN_MOTION_DOT": -2.51e-06, "MEAN_MOTION_DDOT": 0}, "tle": {"line1": "1 39727U 14023A   25348.79191659 -.00000251  00000+0  00000+0 0  9994", "line2": "2 39727   4.6747  71.5200 0004459 208.4046 183.5953  1.00268605 42513"}}, "geometry": {"type": "Point", "coordinates": [-17.038445325108775, -4.675638650840325]}}, {"type": "Feature", "properties": {"norad_id": 39741, "name": "GPS BIIF-6  (PRN 06)", "group": "gnss", "lat": -18.232183154683973, "lon": -33.896227644774925, "alt_km": 20086.62165645056, "timestamp": "2025-12-15T10:55:21.384450+00:00", "meta": {"OBJECT_NAME": "GPS BIIF-6  (PRN 06)", "OBJECT_ID": "2014-026A", "EPOCH": "2025-12-14T11:43:02.437824", "MEAN_MOTION": 2.00561295, "ECCENTRICITY": 0.00392352, "INCLINATION": 56.5829, "RA_OF_ASC_NODE": 338.7083, "ARG_OF_PERICENTER": 318.7867, "MEAN_ANOMALY": 40.9297, "EPHEMERIS_TYPE": 0, "CLASSIFICATION_TYPE": "U", "NORAD_CAT_ID": 39741, "ELEMENT_SET_NO": 999, "REV_AT_EPOCH": 8483, "BSTAR": 0, "MEAN_MOTION_DOT": -8.7e-07, "MEAN_MOTION_DDOT": 0}, "tle": {"line1": "1 39741U 14026A   25348.48822266 -.00000087  00000+0  00000+0 0  9991", "line2": "2 39741  56.5829 338.7083 0039235 318.7867  40.9297  2.00561295 84839"}}, "geometry": {"type": "Point", "coordinates": [-33.896227644774925, -18.232183154683973]}}, {"type": "Feature", "properties": {"norad_id": 40001, "name": "COSMOS 2500 (755)", "group": "gnss", "lat": -63.79425633535608, "lon": -109.00365433151796, "alt_km": 19125.75763292272, "timestamp": "2025-12-15T10:55:21.384465+00:00", "meta": {"OBJECT_NAME": "COSMOS 2500 (755)", "OBJECT_ID": "2014-032A", "EPOCH": "2025-12-13T05:08:36.801312", "MEAN_MOTION": 2.13105905, "ECCENTRICITY": 0.00081883, "INCLINATION": 65.3428, "RA_OF_ASC_NODE": 320.0161, "ARG_OF_PERICENTER": 218.9765, "MEAN_ANOMALY": 140.9635, "EPHEMERIS_TYPE": 0, "CLASSIFICATION_TYPE": "U", "NORAD_CAT_ID": 40001, "ELEMENT_SET_NO": 999, "REV_AT_EPOCH": 8949, "BSTAR": 0, "MEAN_MOTION_DOT": -6e-07, "MEAN_MOTION_DDOT": 0}, "tle": {"line1": "1 40001U 14032A   25347.21431483 -.00000060  00000+0  00000+0 0  9997", "line2": "2 40001  65.3428 320.0161 0008188 218.9765 140.9635  2.13105905 89495"}}, "geometry": {"type": "Point", "coordinates": [-109.00365433151796, -63.79425633535608]}}, {"type": "Feature", "properties": {"norad_id": 40105, "name": "GPS BIIF-7  (PRN 09)", "group": "gnss", "lat": -54.85717064133955, "lon": 15.47045843805339, "alt_km": 20266.277339757653, "timestamp": "2025-12-15T10:55:21.384485+00:00", "meta": {"OBJECT_NAME": "GPS BIIF-7  (PRN 09)", "OBJECT_ID": "2014-045A", "EPOCH": "2025-12-12T01:59:18.865536", "MEAN_MOTION": 2.00572516, "ECCENTRICITY": 0.00326941, "INCLINATION": 55.2287, "RA_OF_ASC_NODE": 95.9251, "ARG_OF_PERICENTER": 119.8618, "MEAN_ANOMALY": 240.4523, "EPHEMERIS_TYPE": 0, "CLASSIFICATION_TYPE": "U", "NORAD_CAT_ID": 40105, "ELEMENT_SET_NO": 999, "REV_AT_EPOCH": 8232, "BSTAR": 0, "MEAN_MOTION_DOT": -9e-08, "MEAN_MOTION_DDOT": 0}, "tle": {"line1": "1 40105U 14045A   25346.08285724 -.00000009  00000+0  00000+0 0  9998", "line2": "2 40105  55.2287  95.9251 0032694 119.8618 240.4523  2.00572516 82323"}}, "geometry": {"type": "Point", "coordinates": [15.47045843805339, -54.85717064133955]}}, {"type": "Feature", "properties": {"norad_id": 40128, "name": "GSAT0201 (GALILEO 5)", "group": "gnss", "lat": -49.0944923886081, "lon": -169.15633127724516, "alt_km": 21452.680562243888, "timestamp": "2025-12-15T10:55:21.384498+00:00", "meta": {"OBJECT_NAME": "GSAT0201 (GALILEO 5)", "OBJECT_ID": "2014-050A", "EPOCH": "2025-12-14T00:08:14.916480", "MEAN_MOTION": 1.85519648, "ECCENTRICITY": 0.16480052, "INCLINATION": 49.0753, "RA_OF_ASC_NODE": 281.012, "ARG_OF_PERICENTER": 172.3262, "MEAN_ANOMALY": 190.5827, "EPHEMERIS_TYPE": 0, "CLASSIFICATION_TYPE": "U", "NORAD_CAT_ID": 40128, "ELEMENT_SET_NO": 999, "REV_AT_EPOCH": 7488, "BSTAR": 0, "MEAN_MOTION_DOT": -9.9e-07, "MEAN_MOTION_DDOT": 0}, "tle": {"line1": "1 40128U 14050A   25348.00572820 -.00000099  00000+0  00000+0 0  9998", "line2": "2 40128  49.0753 281.0120 1648005 172.3262 190.5827  1.85519648 74882"}}, "geometry": {"type": "Point", "coordinates": [-169.15633127724516, -49.0944923886081]}}, {"type": "Feature", "properties": {"norad_id": 40129, "name": "GSAT0202 (GALILEO 6)", "group": "gnss", "lat": 41.496485506672066, "lon": -29.986221060131363, "alt_km": 22611.581031252797, "timestamp": "2025-12-15T10:55:21.384509+00:00", "meta": {"OBJECT_NAME": "GSAT0202 (GALILEO 6)", "OBJECT_ID": "2014-050B", "EPOCH": "2025-12-14T06:17:14.023104", "MEAN_MOTION": 1.85520414, "ECCENTRICITY": 0.16487132, "INCLINATION": 49.0906, "RA_OF_ASC_NODE": 280.0852, "ARG_OF_PERICENTER": 173.0839, "MEAN_ANOMALY": 189.5459, "EPHEMERIS_TYPE": 0, "CLASSIFICATION_TYPE": "U", "NORAD_CAT_ID": 40129, "ELEMENT_SET_NO": 999, "REV_AT_EPOCH": 7705, "BSTAR": 0, "MEAN_MOTION_DOT": -9.7e-07, "MEAN_MOTION_DDOT": 0}, "tle": {"line1": "1 40129U 14050B   25348.26196786 -.00000097  00000+0  00000+0 0  9998", "line2": "2 40129  49.0906 280.0852 1648713 173.0839 189.5459  1.85520414 77052"}}, "geometry": {"type": "Point", "coordinates": [-29.986221060131363, 41.496485506672066]}}, {"type": "Feature", "properties": {"norad_id": 40269, "name": "IRNSS-1C", "group": "gnss", "lat": -5.155544096376306, "lon": -29.178492216598777, "alt_km": 35827.8716884038, "timestamp": "2025-12-15T10:55:21.384521+00:00", "meta": {"OBJECT_NAME": "IRNSS-1C", "OBJECT_ID": "2014-061A", "EPOCH": "2025-12-14T20:39:42.078816", "MEAN_MOTION": 1.00274794, "ECCENTRICITY": 0.00181534, "INCLINATION": 6.0465, "RA_OF_ASC_NODE": 92.58, "ARG_OF_PERICENTER": 1.6673, "MEAN_ANOMALY": 22.3862, "EPHEMERIS_TYPE": 0, "CLASSIFICATION_TYPE": "U", "NORAD_CAT_ID": 40269, "ELEMENT_SET_NO": 999, "REV_AT_EPOCH": 4084, "BSTAR": 0, "MEAN_MOTION_DOT": -1.44e-06, "MEAN_MOTION_DDOT": 0}, "tle": {"line1": "1 40269U 14061A   25348.86090369 -.00000144  00000+0  00000+0 0  9994", "line2": "2 40269   6.0465  92.5800 0018153   1.6673  22.3862  1.00274794 40842"}}, "geometry": {"type": "Point", "coordinates": [-29.178492216598777, -5.155544096376306]}}, {"type": "Feature", "properties": {"norad_id": 40294, "name": "GPS BIIF-8  (PRN 03)", "group": "gnss", "lat": 2.650702304368392, "lon": 39.790014342805456, "alt_km": 20115.332292699124, "timestamp": "2025-12-15T10:55:21.384532+00:00", "meta": {"OBJECT_NAME": "GPS BIIF-8  (PRN 03)", "OBJECT_ID": "2014-068A", "EPOCH": "2025-12-13T10:57:14.379552", "MEAN_MOTION": 2.00564944, "ECCENTRICITY": 0.00607799, "INCLINATION": 56.8584, "RA_OF_ASC_NODE": 38.1182, "ARG_OF_PERICENTER": 69.1634, "MEAN_ANOMALY": 291.5378, "EPHEMERIS_TYPE": 0, "CLASSIFICATION_TYPE": "U", "NORAD_CAT_ID": 40294, "ELEMENT_SET_NO": 999, "REV_AT_EPOCH": 8148, "BSTAR": 0, "MEAN_MOTION_DOT": -9.5e-07, "MEAN_MOTION_DDOT": 0}, "tle": {"line1": "1 40294U 14068A   25347.45641643 -.00000095  00000+0  00000+0 0  9995", "line2": "2 40294  56.8584  38.1182 0060779  69.1634 291.5378  2.00564944 81488"}}, "geometry": {"type": "Point", "coordinates": [39.790014342805456, 2.650702304368392]}}]}